{"type": "FeatureCollection", "features": [ {"type": "Feature", "properties": {"norad_id": 41785, "name": "ALSAT 1B", "group": "resource", "lat": 73.29560472999773, "lon": -21.99510517298335, "alt_km": 639.9071336269199, "timestamp": "2025-12-19T14:48:35.901876+00:00", "meta": {"OBJECT_NAME": "ALSAT 1B", "OBJECT_ID": "2016-059C", "EPOCH": "2025-12-19T07:56:41.558784", "MEAN_MOTION": 14.72081516, "ECCENTRICITY": 0.00107902, "INCLINATION": 97.7809, "RA_OF_ASC_NODE": 4.8369, "ARG_OF_PERICENTER": 84.7749, "MEAN_ANOMALY": 275.469, "EPHEMERIS_TYPE": 0, "CLASSIFICATION_TYPE": "U", "NORAD_CAT_ID": 41785, "ELEMENT_SET_NO": 999, "REV_AT_EPOCH": 49411, "BSTAR": 4.5988254e-05, "MEAN_MOTION_DOT": 2.42e-06, "MEAN_MOTION_DDOT": 0}, "tle": {"line1": "1 41785U 16059C   25353.33103656  .00000242  00000+0  45988-4 0  9996", "line2": "2 41785  97.7809   4.8369 0010790  84.7749 275.4690 14.72081516494110"}}, "geometry": {"type": "Point", "coordinates": [-21.99510517298335, 73.29560472999773]}}, {"type": "Feature", "properties": {"norad_id": 41787, "name": "PATHFINDER 1", "group": "resource", "lat": 35.73210817948194, "lon": -9.597862712808276, "alt_km": 647.9239938820183, "timestamp": "2025-12-19T14:48:35.901886+00:00", "meta": {"OBJECT_NAME": "PATHFINDER 1", "OBJECT_ID": "2016-059E", "EPOCH": "2025-12-19T06:27:48.906720", "MEAN_MOTION": 14.67332023, "ECCENTRICITY": 0.00298773, "INCLINATION": 97.8136, "RA_OF_ASC_NODE": 355.7399, "ARG_OF_PERICENTER": 61.3433, "MEAN_ANOMALY": 299.0771, "EPHEMERIS_TYPE": 0, "CLASSIFICATION_TYPE": "U", "NORAD_CAT_ID": 41787, "ELEMENT_SET_NO": 999, "REV_AT_EPOCH": 49332, "BSTAR": 0.00011011575, "MEAN_MOTION_DOT": 5.79e-06, "MEAN_MOTION_DDOT": 0}, "tle": {"line1": "1 41787U 16059E   25353.26931605  .00000579  00000+0  11012-3 0  9996", "line2": "2 41787  97.8136 355.7399 0029877  61.3433 299.0771 14.67332023493324"}}, "geometry": {"type": "Point", "coordinates": [-9.597862712808276, 35.73210817948194]}}, {"type": "Feature", "properties": {"norad_id": 41790, "name": "SCATSAT 1", "group": "resource", "lat": -43.40538812485387, "lon": 58.15878261159836, "alt_km": 673.5470175733271, "timestamp": "2025-12-19T14:48:35.901897+00:00", "meta": {"OBJECT_NAME": "SCATSAT 1", "OBJECT_ID": "2016-059H", "EPOCH": "2025-12-19T03:38:36.533472", "MEAN_MOTION": 14.78956962, "ECCENTRICITY": 0.00564273, "INCLINATION": 98.1456, "RA_OF_ASC_NODE": 49.9019, "ARG_OF_PERICENTER": 107.7633, "MEAN_ANOMALY": 252.9746, "EPHEMERIS_TYPE": 0, "CLASSIFICATION_TYPE": "U", "NORAD_CAT_ID": 41790, "ELEMENT_SET_NO": 999, "REV_AT_EPOCH": 7497, "BSTAR": 0.00015883777, "MEAN_MOTION_DOT": 1.147e-05, "MEAN_MOTION_DDOT": 0}, "tle": {"line1": "1 41790U 16059H   25353.15181173  .00001147  00000+0  15884-3 0  9998", "line2": "2 41790  98.1456  49.9019 0056427 107.7633 252.9746 14.78956962 74978"}}, "geometry": {"type": "Point", "coordinates": [58.15878261159836, -43.40538812485387]}}, {"type": "Feature", "properties": {"norad_id": 41875, "name": "GOKTURK 1A", "group": "resource", "lat": 1.2385146231769708, "lon": -114.28705364269521, "alt_km": 686.8305093933695, "timestamp": "2025-12-19T14:48:35.901907+00:00", "meta": {"OBJECT_NAME": "GOKTURK 1A", "OBJECT_ID": "2016-073A", "EPOCH": "2025-12-19T06:35:45.106368", "MEAN_MOTION": 14.6278709, "ECCENTRICITY": 0.00012571, "INCLINATION": 98.1434, "RA_OF_ASC_NODE": 245.5527, "ARG_OF_PERICENTER": 80.4349, "MEAN_ANOMALY": 279.6995, "EPHEMERIS_TYPE": 0, "CLASSIFICATION_TYPE": "U", "NORAD_CAT_ID": 41875, "ELEMENT_SET_NO": 999, "REV_AT_EPOCH": 48252, "BSTAR": 0.00010132542, "MEAN_MOTION_DOT": 4.7e-06, "MEAN_MOTION_DDOT": 0}, "tle": {"line1": "1 41875U 16073A   25353.27482762  .00000470  00000+0  10133-3 0  9999", "line2": "2 41875  98.1434 245.5527 0001257  80.4349 279.6995 14.62787090482521"}}, "geometry": {"type": "Point", "coordinates": [-114.28705364269521, 1.2385146231769708]}}, {"type": "Feature", "properties": {"norad_id": 41877, "name": "RESOURCESAT-2A", "group": "resource", "lat": 65.99730675758013, "lon": -96.26873033685204, "alt_km": 813.8060766632661, "timestamp": "2025-12-19T14:48:35.901917+00:00", "meta": {"OBJECT_NAME": "RESOURCESAT-2A", "OBJECT_ID": "2016-074A", "EPOCH": "2025-12-19T07:31:34.743648", "MEAN_MOTION": 14.21603008, "ECCENTRICITY": 0.00013924, "INCLINATION": 98.7756, "RA_OF_ASC_NODE": 63.1316, "ARG_OF_PERICENTER": 223.0318, "MEAN_ANOMALY": 137.0751, "EPHEMERIS_TYPE": 0, "CLASSIFICATION_TYPE": "U", "NORAD_CAT_ID": 41877, "ELEMENT_SET_NO": 999, "REV_AT_EPOCH": 46874, "BSTAR": 0.00014990785, "MEAN_MOTION_DOT": 2.84e-06, "MEAN_MOTION_DDOT": 0}, "tle": {"line1": "1 41877U 16074A   25353.31359657  .00000284  00000+0  14991-3 0  9992", "line2": "2 41877  98.7756  63.1316 0001392 223.0318 137.0751 14.21603008468743"}}, "geometry": {"type": "Point", "coordinates": [-96.26873033685204, 65.99730675758013]}}, {"type": "Feature", "properties": {"norad_id": 41948, "name": "CARTOSAT-2D", "group": "resource", "lat": 13.035471010896005, "lon": 49.27681901550868, "alt_km": 511.33694629781803, "timestamp": "2025-12-19T14:48:35.901927+00:00", "meta": {"OBJECT_NAME": "CARTOSAT-2D", "OBJECT_ID": "2017-008A", "EPOCH": "2025-12-19T06:50:56.131296", "MEAN_MOTION": 15.19321752, "ECCENTRICITY": 0.00052355, "INCLINATION": 97.439, "RA_OF_ASC_NODE": 50.6836, "ARG_OF_PERICENTER": 142.3603, "MEAN_ANOMALY": 217.7999, "EPHEMERIS_TYPE": 0, "CLASSIFICATION_TYPE": "U", "NORAD_CAT_ID": 41948, "ELEMENT_SET_NO": 999, "REV_AT_EPOCH": 49026, "BSTAR": 0.00015975653, "MEAN_MOTION_DOT": 3.307e-05, "MEAN_MOTION_DDOT": 0}, "tle": {"line1": "1 41948U 17008A   25353.28537189  .00003307  00000+0  15976-3 0  9996", "line2": "2 41948  97.4390  50.6836 0005235 142.3603 217.7999 15.19321752490263"}}, "geometry": {"type": "Point", "coordinates": [49.27681901550868, 13.035471010896005]}}, {"type": "Feature", "properties": {"norad_id": 42063, "name": "SENTINEL-2B", "group": "resource", "lat": -50.5759273252602, "lon": 76.53811375621815, "alt_km": 796.6049029493779, "timestamp": "2025-12-19T14:48:35.901937+00:00", "meta": {"OBJECT_NAME": "SENTINEL-2B", "OBJECT_ID": "2017-013A", "EPOCH": "2025-12-19T06:39:28.915200", "MEAN_MOTION": 14.30812518, "ECCENTRICITY": 0.00012044, "INCLINATION": 98.5714, "RA_OF_ASC_NODE": 65.6321, "ARG_OF_PERICENTER": 94.2751, "MEAN_ANOMALY": 265.857, "EPHEMERIS_TYPE": 0, "CLASSIFICATION_TYPE": "U", "NORAD_CAT_ID": 42063, "ELEMENT_SET_NO": 999, "REV_AT_EPOCH": 45891, "BSTAR": -0.00016509393, "MEAN_MOTION_DOT": -4.76e-06, "MEAN_MOTION_DDOT": 0}, "tle": {"line1": "1 42063U 17013A   25353.27741800 -.00000476  00000+0 -16509-3 0  9996", "line2": "2 42063  98.5714  65.6321 0001204  94.2751 265.8570 14.30812518458912"}}, "geometry": {"type": "Point", "coordinates": [76.53811375621815, -50.5759273252602]}}, {"type": "Feature", "properties": {"norad_id": 42767, "name": "CARTOSAT-2E", "group": "resource", "lat": -75.34908131973359, "lon": 81.17461149581727, "alt_km": 515.0316828373498, "timestamp": "2025-12-19T14:48:35.901948+00:00", "meta": {"OBJECT_NAME": "CARTOSAT-2E", "OBJECT_ID": "2017-036C", "EPOCH": "2025-12-19T07:14:47.406048", "MEAN_MOTION": 15.19261859, "ECCENTRICITY": 0.00024795, "INCLINATION": 97.4555, "RA_OF_ASC_NODE": 50.8031, "ARG_OF_PERICENTER": 206.3241, "MEAN_ANOMALY": 153.7868, "EPHEMERIS_TYPE": 0, "CLASSIFICATION_TYPE": "U", "NORAD_CAT_ID": 42767, "ELEMENT_SET_NO": 999, "REV_AT_EPOCH": 47083, "BSTAR": 0.00019214776, "MEAN_MOTION_DOT": 3.983e-05, "MEAN_MOTION_DDOT": 0}, "tle": {"line1": "1 42767U 17036C   25353.30193757  .00003983  00000+0  19215-3 0  9999", "line2": "2 42767  97.4555  50.8031 0002479 206.3241 153.7868 15.19261859470837"}}, "geometry": {"type": "Point", "coordinates": [81.17461149581727, -75.34908131973359]}}, {"type": "Feature", "properties": {"norad_id": 42920, "name": "FORMOSAT-5", "group": "resource", "lat": 81.22590562458232, "lon": -2.152678490774733, "alt_km": 722.5622177365249, "timestamp": "2025-12-19T14:48:35.901958+00:00", "meta": {"OBJECT_NAME": "FORMOSAT-5", "OBJECT_ID": "2017-049A", "EPOCH": "2025-12-19T04:28:42.291840", "MEAN_MOTION": 14.50764289, "ECCENTRICITY": 0.00098463, "INCLINATION": 98.2446, "RA_OF_ASC_NODE": 67.3766, "ARG_OF_PERICENTER": 279.673, "MEAN_ANOMALY": 80.3352, "EPHEMERIS_TYPE": 0, "CLASSIFICATION_TYPE": "U", "NORAD_CAT_ID": 42920, "ELEMENT_SET_NO": 999, "REV_AT_EPOCH": 44057, "BSTAR": 5.4513004e-05, "MEAN_MOTION_DOT": 1.71e-06, "MEAN_MOTION_DDOT": 0}, "tle": {"line1": "1 42920U 17049A   25353.18660060  .00000171  00000+0  54513-4 0  9993", "line2": "2 42920  98.2446  67.3766 0009846 279.6730  80.3352 14.50764289440575"}}, "geometry": {"type": "Point", "coordinates": [-2.152678490774733, 81.22590562458232]}}, {"type": "Feature", "properties": {"norad_id": 42969, "name": "SENTINEL-5P", "group": "resource", "lat": 65.49077413474556, "lon": -87.67268778602316, "alt_km": 819.8747039286181, "timestamp": "2025-12-19T14:48:35.901968+00:00", "meta": {"OBJECT_NAME": "SENTINEL-5P", "OBJECT_ID": "2017-064A", "EPOCH": "2025-12-18T19:53:13.522272", "MEAN_MOTION": 14.19519004, "ECCENTRICITY": 0.00010133, "INCLINATION": 98.7792, "RA_OF_ASC_NODE": 291.3589, "ARG_OF_PERICENTER": 90.03, "MEAN_ANOMALY": 270.0992, "EPHEMERIS_TYPE": 0, "CLASSIFICATION_TYPE": "U", "NORAD_CAT_ID": 42969, "ELEMENT_SET_NO": 999, "REV_AT_EPOCH": 42397, "BSTAR": 4.0106086e-05, "MEAN_MOTION_DOT": 4e-07, "MEAN_MOTION_DDOT": 0}, "tle": {"line1": "1 42969U 17064A   25352.82862873  .00000040  00000+0  40106-4 0  9997", "line2": "2 42969  98.7792 291.3589 0001013  90.0300 270.0992 14.19519004423976"}}, "geometry": {"type": "Point", "coordinates": [-87.67268778602316, 65.49077413474556]}}]}